51649,ONEWEB-0461,2022,109.29,148.0,+,87.91,Active,1,LEO,French Guiana,UK,Commercial,Communications,Soyuz,1 51649U 22012AD  24353.09614279  .00000094  00000+0  20893-3 0  9994,2 51649  87.9095 114.6466 0001620 103.7762 256.3550 13.17652248143269,13.17652248,0.000162,LEO
51650,ONEWEB-0463,2022,109.29,148.0,+,87.91,Active,1,LEO,French Guiana,UK,Commercial,Communications,Soyuz,1 51650U 22012AE  24352.84978285  .00000088  00000+0  19374-3 0  9993,2 51650  87.9100 114.7505 0001624  99.7590 260.3725 13.17647547141724,13.17647547,0.0001624,LEO
51651,ONEWEB-0464,2022,109.89,148.0,+,87.89,Active,1,LEO,French Guiana,UK,Commercial,Communications,Soyuz,1 51651U 22012AF  24352.92406454 -.00000636  00000+0 -18582-2 0  9997,2 51651  87.8900 145.0829 0001086  93.2868 266.8384 13.10372412139084,13.10372412,0.0001086,LEO
51652,ONEWEB-0468,2022,109.89,148.0,+,87.89,Active,1,LEO,French Guiana,UK,Commercial,Communications,Soyuz,1 51652U 22012AG  24352.93070728 -.00000410  00000+0 -12103-2 0  9993,2 51652  87.8905 145.0739 0001407  95.4869 264.6419 13.10373586139057,13.10373586,0.0001407,LEO
51653,ONEWEB-0473,2022,109.89,148.0,+,87.89,Active,1,LEO,French Guiana,UK,Commercial,Communications,Soyuz,1 51653U 22012AH  24352.83941487 -.00000595  00000+0 -17415-2 0  9997,2 51653  87.8893 145.0953 0001442  91.3041 268.8251 13.10370490137754,13.1037049,0.0001442,LEO
51654,ONEWEB-0474,2022,109.89,148.0,+,87.89,Active,1,LEO,French Guiana,UK,Commercial,Communications,Soyuz,1 51654U 22012AJ  24353.13655332 -.00000217  00000+0 -65779-3 0  9991,2 51654  87.8884 145.0163 0001260  89.2314 270.8958 13.10369922139077,13.10369922,0.000126,LEO
51655,ONEWEB-0475,2022,109.29,148.0,+,87.91,Active,1,LEO,French Guiana,UK,Commercial,Communications,Soyuz,1 51655U 22012AK  24352.86160202  .00000104  00000+0  23420-3 0  9998,2 51655  87.9101 114.7278 0001469  70.2023 289.9267 13.17650727141743,13.17650727,0.0001469,LEO
54113,ONEWEB-0490,2022,109.11,148.0,+,87.92,Active,1,LEO,India,UK,Commercial,Communications,PSLV,1 54113U 22138A   24352.72294533 -.00000031  00000+0 -11017-3 0  9999,2 54113  87.9174  53.6178 0001629  99.9120 260.2197 13.19728111104758,13.19728111,0.0001629,LEO
